{"type": "FeatureCollection", "features": [ {"type": "Feature", "properties": {"norad_id": 34327, "name": "COSMOS 2251 DEB", "group": "cosmos-2251-debris", "lat": -73.370159341225, "lon": 80.12429465096874, "alt_km": 611.4254919892819, "timestamp": "2025-12-05T14:45:15.691579+00:00", "meta": {"OBJECT_NAME": "COSMOS 2251 DEB", "OBJECT_ID": "1993-036NZ", "EPOCH": "2025-12-04T15:14:10.390272", "MEAN_MOTION": 14.88908111, "ECCENTRICITY": 0.0032336, "INCLINATION": 73.9934, "RA_OF_ASC_NODE": 188.1173, "ARG_OF_PERICENTER": 6.2426, "MEAN_ANOMALY": 49.2472, "EPHEMERIS_TYPE": 0, "CLASSIFICATION_TYPE": "U", "NORAD_CAT_ID": 34327, "ELEMENT_SET_NO": 999, "REV_AT_EPOCH": 89387, "BSTAR": 0.0027685, "MEAN_MOTION_DOT": 0.00026306, "MEAN_MOTION_DDOT": 0}, "tle": {"line1": "1 34327U 93036NZ  25338.63484248  .00026306  00000+0  27685-2 0  9996", "line2": "2 34327  73.9934 188.1173 0032336   6.2426  49.2472 14.88908111893876"}}, "geometry": {"type": "Point", "coordinates": [80.12429465096874, -73.370159341225]}}, {"type": "Feature", "properties": {"norad_id": 34340, "name": "COSMOS 2251 DEB", "group": "cosmos-2251-debris", "lat": -15.643933447072909, "lon": -44.697361586756536, "alt_km": 948.3613377875172, "timestamp": "2025-12-05T14:45:15.691590+00:00", "meta": {"OBJECT_NAME": "COSMOS 2251 DEB", "OBJECT_ID": "1993-036PN", "EPOCH": "2025-12-04T09:56:59.883072", "MEAN_MOTION": 13.79529873, "ECCENTRICITY": 0.0281838, "INCLINATION": 74.0789, "RA_OF_ASC_NODE": 321.8908, "ARG_OF_PERICENTER": 71.7474, "MEAN_ANOMALY": 77.0869, "EPHEMERIS_TYPE": 0, "CLASSIFICATION_TYPE": "U", "NORAD_CAT_ID": 34340, "ELEMENT_SET_NO": 999, "REV_AT_EPOCH": 84153, "BSTAR": 0.001466, "MEAN_MOTION_DOT": 2.014e-05, "MEAN_MOTION_DDOT": 0}, "tle": {"line1": "1 34340U 93036PN  25338.41458198  .00002014  00000+0  14660-2 0  9991", "line2": "2 34340  74.0789 321.8908 0281838  71.7474  77.0869 13.79529873841534"}}, "geometry": {"type": "Point", "coordinates": [-44.697361586756536, -15.643933447072909]}}, {"type": "Feature", "properties": {"norad_id": 34343, "name": "COSMOS 2251 DEB", "group": "cosmos-2251-debris", "lat": -71.81643209161503, "lon": 42.62523323658776, "alt_km": 673.7019868963125, "timestamp": "2025-12-05T14:45:15.691600+00:00", "meta": {"OBJECT_NAME": "COSMOS 2251 DEB", "OBJECT_ID": "1993-036PR", "EPOCH": "2025-12-04T09:57:38.751840", "MEAN_MOTION": 14.69202569, "ECCENTRICITY": 0.0022617, "INCLINATION": 74.0197, "RA_OF_ASC_NODE": 105.6924, "ARG_OF_PERICENTER": 23.6515, "MEAN_ANOMALY": 32.35, "EPHEMERIS_TYPE": 0, "CLASSIFICATION_TYPE": "U", "NORAD_CAT_ID": 34343, "ELEMENT_SET_NO": 999, "REV_AT_EPOCH": 88608, "BSTAR": 0.0041896, "MEAN_MOTION_DOT": 0.00024833, "MEAN_MOTION_DDOT": 0}, "tle": {"line1": "1 34343U 93036PR  25338.41503185  .00024833  00000+0  41896-2 0  9995", "line2": "2 34343  74.0197 105.6924 0022617  23.6515  32.3500 14.69202569886081"}}, "geometry": {"type": "Point", "coordinates": [42.62523323658776, -71.81643209161503]}}, {"type": "Feature", "properties": {"norad_id": 34344, "name": "COSMOS 2251 DEB", "group": "cosmos-2251-debris", "lat": -58.87545595753257, "lon": 94.64703527535586, "alt_km": 734.8342081320407, "timestamp": "2025-12-05T14:45:15.691610+00:00", "meta": {"OBJECT_NAME": "COSMOS 2251 DEB", "OBJECT_ID": "1993-036PS", "EPOCH": "2025-12-02T12:47:13.899264", "MEAN_MOTION": 14.16298308, "ECCENTRICITY": 0.01551689, "INCLINATION": 73.9766, "RA_OF_ASC_NODE": 128.565, "ARG_OF_PERICENTER": 314.8879, "MEAN_ANOMALY": 114.6708, "EPHEMERIS_TYPE": 0, "CLASSIFICATION_TYPE": "U", "NORAD_CAT_ID": 34344, "ELEMENT_SET_NO": 999, "REV_AT_EPOCH": 85952, "BSTAR": 0.0017796422, "MEAN_MOTION_DOT": 3.944e-05, "MEAN_MOTION_DDOT": 0}, "tle": {"line1": "1 34344U 93036PS  25336.53279976  .00003944  00000+0  17796-2 0  9997", "line2": "2 34344  73.9766 128.5650 0155168 314.8879 114.6708 14.16298308859529"}}, "geometry": {"type": "Point", "coordinates": [94.64703527535586, -58.87545595753257]}}, {"type": "Feature", "properties": {"norad_id": 34346, "name": "COSMOS 2251 DEB", "group": "cosmos-2251-debris", "lat": 59.27425073249565, "lon": 115.73417669304493, "alt_km": 756.2893449820131, "timestamp": "2025-12-05T14:45:15.691620+00:00", "meta": {"OBJECT_NAME": "COSMOS 2251 DEB", "OBJECT_ID": "1993-036PU", "EPOCH": "2025-12-04T00:44:15.656928", "MEAN_MOTION": 13.99654077, "ECCENTRICITY": 0.02067508, "INCLINATION": 73.9943, "RA_OF_ASC_NODE": 327.3581, "ARG_OF_PERICENTER": 148.355, "MEAN_ANOMALY": 270.8429, "EPHEMERIS_TYPE": 0, "CLASSIFICATION_TYPE": "U", "NORAD_CAT_ID": 34346, "ELEMENT_SET_NO": 999, "REV_AT_EPOCH": 85288, "BSTAR": 0.0013656225, "MEAN_MOTION_DOT": 2.378e-05, "MEAN_MOTION_DDOT": 0}, "tle": {"line1": "1 34346U 93036PU  25338.03073677  .00002378  00000+0  13656-2 0  9997", "line2": "2 34346  73.9943 327.3581 0206750 148.3550 270.8429 13.99654077852886"}}, "geometry": {"type": "Point", "coordinates": [115.73417669304493, 59.27425073249565]}}, {"type": "Feature", "properties": {"norad_id": 34383, "name": "COSMOS 2251 DEB", "group": "cosmos-2251-debris", "lat": 44.62292602022191, "lon": -31.184874138034214, "alt_km": 536.1277380772372, "timestamp": "2025-12-05T14:45:15.691630+00:00", "meta": {"OBJECT_NAME": "COSMOS 2251 DEB", "OBJECT_ID": "1993-036PY", "EPOCH": "2025-12-04T08:50:08.191968", "MEAN_MOTION": 15.07751499, "ECCENTRICITY": 0.0002893, "INCLINATION": 74.0208, "RA_OF_ASC_NODE": 314.9535, "ARG_OF_PERICENTER": 34.493, "MEAN_ANOMALY": 88.2774, "EPHEMERIS_TYPE": 0, "CLASSIFICATION_TYPE": "U", "NORAD_CAT_ID": 34383, "ELEMENT_SET_NO": 999, "REV_AT_EPOCH": 88987, "BSTAR": 0.0074126, "MEAN_MOTION_DOT": 0.00115139, "MEAN_MOTION_DDOT": 0}, "tle": {"line1": "1 34383U 93036PY  25338.36815037  .00115139  00000+0  74126-2 0  9997", "line2": "2 34383  74.0208 314.9535 0002893  34.4930  88.2774 15.07751499889873"}}, "geometry": {"type": "Point", "coordinates": [-31.184874138034214, 44.62292602022191]}}, {"type": "Feature", "properties": {"norad_id": 34387, "name": "COSMOS 2251 DEB", "group": "cosmos-2251-debris", "lat": -19.607926733540545, "lon": 50.98994895728316, "alt_km": 765.6709910093605, "timestamp": "2025-12-05T14:45:15.691703+00:00", "meta": {"OBJECT_NAME": "COSMOS 2251 DEB", "OBJECT_ID": "1993-036QC", "EPOCH": "2025-12-04T03:36:01.498176", "MEAN_MOTION": 14.43791809, "ECCENTRICITY": 0.00385756, "INCLINATION": 74.0402, "RA_OF_ASC_NODE": 227.8601, "ARG_OF_PERICENTER": 326.4317, "MEAN_ANOMALY": 184.0811, "EPHEMERIS_TYPE": 0, "CLASSIFICATION_TYPE": "U", "NORAD_CAT_ID": 34387, "ELEMENT_SET_NO": 999, "REV_AT_EPOCH": 88057, "BSTAR": 0.00054181863, "MEAN_MOTION_DOT": 1.834e-05, "MEAN_MOTION_DDOT": 0}, "tle": {"line1": "1 34387U 93036QC  25338.15001734  .00001834  00000+0  54182-3 0  9996", "line2": "2 34387  74.0402 227.8601 0038575 326.4317 184.0811 14.43791809880571"}}, "geometry": {"type": "Point", "coordinates": [50.98994895728316, -19.607926733540545]}}, {"type": "Feature", "properties": {"norad_id": 34388, "name": "COSMOS 2251 DEB", "group": "cosmos-2251-debris", "lat": 39.705644981624886, "lon": -109.78556070122653, "alt_km": 729.102730438015, "timestamp": "2025-12-05T14:45:15.691716+00:00", "meta": {"OBJECT_NAME": "COSMOS 2251 DEB", "OBJECT_ID": "1993-036QD", "EPOCH": "2025-12-04T04:28:23.738304", "MEAN_MOTION": 14.492922, "ECCENTRICITY": 0.00143171, "INCLINATION": 74.04, "RA_OF_ASC_NODE": 239.1448, "ARG_OF_PERICENTER": 287.7197, "MEAN_ANOMALY": 224.3483, "EPHEMERIS_TYPE": 0, "CLASSIFICATION_TYPE": "U", "NORAD_CAT_ID": 34388, "ELEMENT_SET_NO": 999, "REV_AT_EPOCH": 88031, "BSTAR": 0.0016241473, "MEAN_MOTION_DOT": 6.183e-05, "MEAN_MOTION_DDOT": 0}, "tle": {"line1": "1 34388U 93036QD  25338.18638586  .00006183  00000+0  16241-2 0  9996", "line2": "2 34388  74.0400 239.1448 0014317 287.7197 224.3483 14.49292200880310"}}, "geometry": {"type": "Point", "coordinates": [-109.78556070122653, 39.705644981624886]}}, {"type": "Feature", "properties": {"norad_id": 34389, "name": "COSMOS 2251 DEB", "group": "cosmos-2251-debris", "lat": -72.97353164961883, "lon": 152.38392879984517, "alt_km": 768.2373630627508, "timestamp": "2025-12-05T14:45:15.691726+00:00", "meta": {"OBJECT_NAME": "COSMOS 2251 DEB", "OBJECT_ID": "1993-036QE", "EPOCH": "2025-12-04T04:47:38.941728", "MEAN_MOTION": 14.41496532, "ECCENTRICITY": 0.00284997, "INCLINATION": 74.0189, "RA_OF_ASC_NODE": 265.6493, "ARG_OF_PERICENTER": 19.5826, "MEAN_ANOMALY": 104.6989, "EPHEMERIS_TYPE": 0, "CLASSIFICATION_TYPE": "U", "NORAD_CAT_ID": 34389, "ELEMENT_SET_NO": 999, "REV_AT_EPOCH": 87889, "BSTAR": 0.00076934723, "MEAN_MOTION_DOT": 2.484e-05, "MEAN_MOTION_DDOT": 0}, "tle": {"line1": "1 34389U 93036QE  25338.19975627  .00002484  00000+0  76935-3 0  9995", "line2": "2 34389  74.0189 265.6493 0028499  19.5826 104.6989 14.41496532878892"}}, "geometry": {"type": "Point", "coordinates": [152.38392879984517, -72.97353164961883]}}, {"type": "Feature", "properties": {"norad_id": 34396, "name": "COSMOS 2251 DEB", "group": "cosmos-2251-debris", "lat": 64.22315420317366, "lon": 174.3224815552295, "alt_km": 643.1300123440897, "timestamp": "2025-12-05T14:45:15.691737+00:00", "meta": {"OBJECT_NAME": "COSMOS 2251 DEB", "OBJECT_ID": "1993-036QM", "EPOCH": "2025-12-04T12:39:41.449248", "MEAN_MOTION": 14.7405114, "ECCENTRICITY": 0.0007299, "INCLINATION": 74.0277, "RA_OF_ASC_NODE": 140.0678, "ARG_OF_PERICENTER": 182.7859, "MEAN_ANOMALY": 239.7557, "EPHEMERIS_TYPE": 0, "CLASSIFICATION_TYPE": "U", "NORAD_CAT_ID": 34396, "ELEMENT_SET_NO": 999, "REV_AT_EPOCH": 88225, "BSTAR": 0.005398, "MEAN_MOTION_DOT": 0.00035702, "MEAN_MOTION_DDOT": 0}, "tle": {"line1": "1 34396U 93036QM  25338.52756307  .00035702  00000+0  53980-2 0  9995", "line2": "2 34396  74.0277 140.0678 0007299 182.7859 239.7557 14.74051140882257"}}, "geometry": {"type": "Point", "coordinates": [174.3224815552295, 64.22315420317366]}}]}